0 DELTA 4 R/B
1 35492U 09033B   13280.73413646 -.00000087  00000-0  00000+0 0  6482
2 35492 013.7108 275.8522 5228974 161.1523 269.1457 01.93165340 30180
0 DELTA 4 R/B
1 35492U 09033B   13282.41838597 -.00000143  00000-0  00000+0 0  6499
2 35492 013.7067 275.6609 5229120 161.5230 000.3495 01.93166150 30212
0 DELTA 4 R/B
1 35492U 09033B   13287.62329159 -.00000105  00000-0  00000+0 0  6517
2 35492 013.6955 275.0673 5229689 162.6671 019.7875 01.93165604 30313
0 DELTA 4 R/B
1 35492U 09033B   13291.19805840 -.00000067  00000-0  00000+0 0  6528
2 35492 013.6884 274.6593 5230132 163.4526 345.6373 01.93164942 30388
0 DELTA 4 R/B
1 35492U 09033B   13293.79828995 -.00000130  00000-0  00000+0 0  6534
2 35492 013.6831 274.3625 5230509 164.0240 353.8129 01.93165621 30432
